[{"OBJECT_NAME":"STARLINK-3604","OBJECT_ID":"2022-017AZ","EPOCH":"2026-03-09T21:32:47.485248","MEAN_MOTION":15.08834424,"ECCENTRICITY":0.00013283,"INCLINATION":53.2193,"RA_OF_ASC_NODE":328.1913,"ARG_OF_PERICENTER":49.6075,"MEAN_ANOMALY":310.5033,"EPHEMERIS_TYPE":0,"CLASSIFICATION_TYPE":"U","NORAD_CAT_ID":51815,"ELEMENT_SET_NO":999,"REV_AT_EPOCH":22411,"BSTAR":5.7389416e-5,"MEAN_MOTION_DOT":6.25e-6,"MEAN_MOTION_DDOT":0},{"OBJECT_NAME":"FREGAT DEB","OBJECT_ID":"2011-037DJ","EPOCH":"2026-03-09T05:46:54.234336","MEAN_MOTION":14.1723702,"ECCENTRICITY":0.05960905,"INCLINATION":51.3214,"RA_OF_ASC_NODE":17.6938,"ARG_OF_PERICENTER":2.2668,"MEAN_ANOMALY":358.0757,"EPHEMERIS_TYPE":0,"CLASSIFICATION_TYPE":"U","NORAD_CAT_ID":45889,"ELEMENT_SET_NO":999,"REV_AT_EPOCH":24920,"BSTAR":0.025332087,"MEAN_MOTION_DOT":0.00335975,"MEAN_MOTION_DDOT":0}]
